LANDSAT 9               
1 49260U 21088A   23268.90084207  .00000822  00000+0  19245-3 0  9996
2 49260  98.2211 337.5465 0001384  90.9662 269.1695 14.57126428106068
